NORAD_CAT_ID,OBJECT_NAME,OBJECT_TYPE,EPOCH,MEAN_MOTION,ECCENTRICITY,INCLINATION,RA_OF_ASC_NODE,ARG_OF_PERICENTER,MEAN_ANOMALY,BSTAR,MEAN_MOTION_DOT,MEAN_MOTION_DDOT,TLE_LINE0,TLE_LINE1,TLE_LINE2,SEMIMAJOR_AXIS,PERIOD,APOGEE,PERIGEE,DECAYED
53394.0,STARLINK-4544,PAYLOAD,2024-06-29 21:35:15,15.08831693,0.000123,53.2177,7.1013,92.2376,267.8757,-2.7724e-05,-7.29e-06,0.0,0 STARLINK-4544,1 53394U 22097G   24181.89948183 -.00000729  00000-0 -27724-4 0  9996,2 53394  53.2177   7.1013 0001230  92.2376 267.8757 15.08831693105550,6917.906,95.438,540.622,538.92,0.0
53394.0,STARLINK-4544,PAYLOAD,2024-06-30 11:53:42,15.08837793,8.06e-05,53.2184,4.425,87.0212,273.0872,9.9438e-05,1.295e-05,0.0,0 STARLINK-4544,1 53394U 22097G   24182.49563448  .00001295  00000-0  99438-4 0  9998,2 53394  53.2184   4.4250 0000806  87.0212 273.0872 15.08837793104991,6917.887,95.438,540.31,539.195,0.0
53394.0,STARLINK-4544,PAYLOAD,2024-06-30 19:50:37,15.08856008,0.0001194,53.2165,2.9394,116.3881,243.7234,0.00018063,2.589e-05,0.0,0 STARLINK-4544,1 53394U 22097G   24182.82682509  .00002589  00000-0  18063-3 0  9996,2 53394  53.2165   2.9394 0001194 116.3881 243.7234 15.08856008105044,6917.831,95.437,540.522,538.87,0.0
53394.0,STARLINK-4544,PAYLOAD,2024-07-01 05:22:57,15.08845452,0.0001272,53.2176,1.155,93.2404,266.8734,0.00027175,4.04e-05,0.0,0 STARLINK-4544,1 53394U 22097G   24183.22427175  .00004040  00000-0  27175-3 0  9995,2 53394  53.2176   1.1550 0001272  93.2404 266.8734 15.08845452105101,6917.864,95.437,540.609,538.849,0.0
53394.0,STARLINK-4544,PAYLOAD,2024-07-01 11:44:30,15.08837498,0.0001193,53.215,359.9662,99.7466,260.366,0.00027123,4.031e-05,0.0,0 STARLINK-4544,1 53394U 22097G   24183.48923628  .00004031  00000-0  27123-3 0  9990,2 53394  53.2150 359.9662 0001193  99.7466 260.3660 15.08837498105144,6917.888,95.438,540.578,538.928,0.0
53394.0,STARLINK-4544,PAYLOAD,2024-07-01 18:06:02,15.0883855,0.0001171,53.2152,358.7757,105.7539,254.3582,0.00023521,3.457e-05,0.0,0 STARLINK-4544,1 53394U 22097G   24183.75419592  .00003457  00000-0  23521-3 0  9999,2 53394  53.2152 358.7757 0001171 105.7539 254.3582 15.08838550105835,6917.885,95.438,540.56,538.94,0.0
53394.0,STARLINK-4544,PAYLOAD,2024-07-02 05:13:44,15.08838321,0.0001102,53.2159,356.694,108.6297,251.4815,6.2885e-05,7.13e-06,0.0,0 STARLINK-4544,1 53394U 22097G   24184.21787610  .00000713  00000-0  62885-4 0  9999,2 53394  53.2159 356.6940 0001102 108.6297 251.4815 15.08838321105901,6917.886,95.438,540.513,538.988,0.0
53394.0,STARLINK-4544,PAYLOAD,2024-07-02 21:07:35,15.08847736,0.0001251,53.2181,353.7196,101.2006,258.9127,-1.9786e-05,-6.03e-06,0.0,0 STARLINK-4544,1 53394U 22097G   24184.88027334 -.00000603  00000-0 -19786-4 0  9994,2 53394  53.2181 353.7196 0001251 101.2006 258.9127 15.08847736105356,6917.857,95.437,540.587,538.856,0.0
53394.0,STARLINK-4544,PAYLOAD,2024-07-03 11:26:04,15.0883475,0.0001284,53.2159,351.0435,101.964,258.1496,0.00011002,1.463e-05,0.0,0 STARLINK-4544,1 53394U 22097G   24185.47643978  .00001463  00000-0  11002-3 0  9993,2 53394  53.2159 351.0435 0001284 101.9640 258.1496 15.08834750105448,6917.896,95.438,540.65,538.873,0.0
53394.0,STARLINK-4544,PAYLOAD,2024-07-03 17:47:36,15.08839824,0.0001034,53.216,349.8542,96.6447,263.4663,0.00013694,1.892e-05,0.0,0 STARLINK-4544,1 53394U 22097G   24185.74139601  .00001892  00000-0  13694-3 0  9991,2 53394  53.2160 349.8542 0001034  96.6447 263.4663 15.08839824106131,6917.881,95.438,540.461,539.031,0.0
53394.0,STARLINK-4544,PAYLOAD,2024-07-04 14:27:37,15.08837571,0.0001105,53.2173,345.9917,85.6747,274.4371,0.00013212,1.815e-05,0.0,0 STARLINK-4544,1 53394U 22097G   24186.60251960  .00001815  00000-0  13212-3 0  9991,2 53394  53.2173 345.9917 0001105  85.6747 274.4371 15.08837571106267,6917.888,95.438,540.517,538.988,0.0
53394.0,STARLINK-4544,PAYLOAD,2024-07-04 17:38:23,15.08842601,0.0001056,53.2162,345.3957,87.3582,272.7531,0.00016075,2.272e-05,0.0,0 STARLINK-4544,1 53394U 22097G   24186.73499779  .00002272  00000-0  16075-3 0  9995,2 53394  53.2162 345.3957 0001056  87.3582 272.7531 15.08842601105633,6917.872,95.437,540.468,539.007,0.0
53394.0,STARLINK-4544,PAYLOAD,2024-07-05 11:07:38,15.08836607,0.000118,53.2182,342.1267,97.5873,262.5253,-1.9919e-05,-6.05e-06,0.0,0 STARLINK-4544,1 53394U 22097G   24187.46364074 -.00000605  00000-0 -19919-4 0  9996,2 53394  53.2182 342.1267 0001180  97.5873 262.5253 15.08836607105747,6917.891,95.438,540.572,538.939,0.0
53394.0,STARLINK-4544,PAYLOAD,2024-07-05 14:18:24,15.08841216,0.0001124,53.2183,341.5315,97.823,262.289,4.0273e-05,3.53e-06,0.0,0 STARLINK-4544,1 53394U 22097G   24187.59611753  .00000353  00000-0  40273-4 0  9994,2 53394  53.2183 341.5315 0001124  97.8230 262.2890 15.08841216106414,6917.877,95.437,540.519,538.964,0.0
53394.0,STARLINK-4544,PAYLOAD,2024-07-05 17:29:10,15.08843354,0.0001053,53.2178,340.9372,90.2602,269.8511,8.5495e-05,1.073e-05,0.0,0 STARLINK-4544,1 53394U 22097G   24187.72859708  .00001073  00000-0  85495-4 0  9998,2 53394  53.2178 340.9372 0001053  90.2602 269.8511 15.08843354106435,6917.87,95.437,540.464,539.007,0.0
53394.0,STARLINK-4544,PAYLOAD,2024-07-06 14:09:12,15.08832188,0.0001061,53.218,337.0723,97.0426,263.0686,-8.7284e-05,-1.676e-05,0.0,0 STARLINK-4544,1 53394U 22097G   24188.58972426 -.00001676  00000-0 -87284-4 0  9995,2 53394  53.2180 337.0723 0001061  97.0426 263.0686 15.08832188106569,6917.904,95.438,540.503,539.035,0.0
53394.0,STARLINK-4544,PAYLOAD,2024-07-06 18:55:21,15.08841277,0.0001176,53.2189,336.1815,107.8773,252.2347,5.7557e-05,6.28e-06,0.0,0 STARLINK-4544,1 53394U 22097G   24188.78844200  .00000628  00000-0  57557-4 0  9999,2 53394  53.2189 336.1815 0001176 107.8773 252.2347 15.08841277105946,6917.876,95.437,540.555,538.928,0.0
53394.0,STARLINK-4544,PAYLOAD,2024-07-07 13:59:58,15.08841529,9.19e-05,53.2185,332.6081,91.8842,268.2255,0.00022554,3.304e-05,0.0,0 STARLINK-4544,1 53394U 22097G   24189.58331642  .00003304  00000-0  22554-3 0  9991,2 53394  53.2185 332.6081 0000919  91.8842 268.2255 15.08841529106712,6917.876,95.437,540.376,539.105,0.0
53394.0,STARLINK-4544,PAYLOAD,2024-07-07 18:46:07,15.08861096,0.00012,53.2182,331.7156,84.957,275.156,0.00033808,5.1e-05,0.0,0 STARLINK-4544,1 53394U 22097G   24189.78202809  .00005100  00000-0  33808-3 0  9995,2 53394  53.2182 331.7156 0001200  84.9570 275.1560 15.08861096106095,6917.816,95.436,540.511,538.851,0.0
53394.0,STARLINK-4544,PAYLOAD,2024-07-08 09:04:36,15.08839588,0.000144,53.2155,329.0409,88.8383,271.2774,7.8804e-05,9.66e-06,0.0,0 STARLINK-4544,1 53394U 22097G   24190.37819795  .00000966  00000-0  78804-4 0  9991,2 53394  53.2155 329.0409 0001440  88.8383 271.2774 15.08839588106182,6917.882,95.438,540.743,538.75,0.0
53394.0,STARLINK-4544,PAYLOAD,2024-07-08 13:50:45,15.0883704,0.0001491,53.2192,328.15,90.404,269.7123,2.9363e-05,1.79e-06,0.0,0 STARLINK-4544,1 53394U 22097G   24190.57692052  .00000179  00000-0  29363-4 0  9990,2 53394  53.2192 328.1500 0001491  90.4040 269.7123 15.08837040106866,6917.889,95.438,540.786,538.723,0.0
53394.0,STARLINK-4544,PAYLOAD,2024-07-08 17:01:31,15.08841458,0.0001109,53.2172,327.5536,101.7958,258.3159,-1.2566e-05,-4.88e-06,0.0,0 STARLINK-4544,1 53394U 22097G   24190.70939648 -.00000488  00000-0 -12566-4 0  9992,2 53394  53.2172 327.5536 0001109 101.7958 258.3159 15.08841458106889,6917.876,95.437,540.508,538.974,0.0
53394.0,STARLINK-4544,PAYLOAD,2024-07-09 15:16:55,15.08839527,0.000105,53.2172,323.3917,89.9868,270.1245,-6.3288e-05,-1.295e-05,0.0,0 STARLINK-4544,1 53394U 22097G   24191.63675816 -.00001295  00000-0 -63288-4 0  9993,2 53394  53.2172 323.3917 0001050  89.9868 270.1245 15.08839527107027,6917.882,95.438,540.473,539.02,0.0
53394.0,STARLINK-4544,PAYLOAD,2024-07-10 04:00:00,15.0885284,0.0001103,53.2177,321.0133,99.7737,260.3379,-0.00020255,-3.511e-05,0.0,0 STARLINK-4544,1 53394U 22097G   24192.16667340 -.00003511  00000-0 -20255-3 0  9994,2 53394  53.2177 321.0133 0001103  99.7737 260.3379 15.08852840106458,6917.841,95.437,540.469,538.943,0.0
53394.0,STARLINK-4544,PAYLOAD,2024-07-10 15:07:43,15.08833265,0.0001352,53.2169,318.9305,95.6759,264.4387,9.779e-05,1.268e-05,0.0,0 STARLINK-4544,1 53394U 22097G   24192.63036411  .00001268  00000-0  97790-4 0  9999,2 53394  53.2169 318.9305 0001352  95.6759 264.4387 15.08833265107174,6917.901,95.438,540.701,538.831,0.0
53394.0,STARLINK-4544,PAYLOAD,2024-07-10 18:18:29,15.08834153,0.0001271,53.217,318.3357,97.2261,262.8876,8.0477e-05,9.93e-06,0.0,0 STARLINK-4544,1 53394U 22097G   24192.76284409  .00000993  00000-0  80477-4 0  9993,2 53394  53.2170 318.3357 0001271  97.2261 262.8876 15.08834153106545,6917.898,95.438,540.643,538.884,0.0
53394.0,STARLINK-4544,PAYLOAD,2024-07-11 13:23:07,15.08840057,0.0001453,53.2162,314.7659,96.7707,263.3451,0.00011861,1.6e-05,0.0,0 STARLINK-4544,1 53394U 22097G   24193.55772274  .00001600  00000-0  11861-3 0  9999,2 53394  53.2162 314.7659 0001453  96.7707 263.3451 15.08840057107313,6917.88,95.438,540.75,538.74,0.0
53394.0,STARLINK-4544,PAYLOAD,2024-07-12 00:30:48,15.088445,0.0001276,53.2182,312.6847,95.4486,264.6651,8.8016e-05,1.113e-05,0.0,0 STARLINK-4544,1 53394U 22097G   24194.02140014  .00001113  00000-0  88016-4 0  9999,2 53394  53.2182 312.6847 0001276  95.4486 264.6651 15.08844500106732,6917.867,95.437,540.614,538.849,0.0
53394.0,STARLINK-4544,PAYLOAD,2024-07-12 13:13:55,15.08819393,0.0001318,53.2207,310.3088,118.9259,241.1865,0.00028806,4.297e-05,0.0,0 STARLINK-4544,1 53394U 22097G   24194.55133710  .00004297  00000-0  28806-3 0  9998,2 53394  53.2207 310.3088 0001318 118.9259 241.1865 15.08819393106816,6917.943,95.439,540.72,538.897,0.0
53394.0,STARLINK-4544,PAYLOAD,2024-07-12 14:49:18,15.08834159,0.0001278,53.2175,310.0114,96.7677,263.3461,6.8776e-05,8.07e-06,0.0,0 STARLINK-4544,1 53394U 22097G   24194.61757083  .00000807  00000-0  68776-4 0  9994,2 53394  53.2175 310.0114 0001278  96.7677 263.3461 15.08834159107477,6917.898,95.438,540.647,538.879,0.0
